NORAD_CAT_ID,OBJECT_NAME,OBJECT_TYPE,EPOCH,MEAN_MOTION,ECCENTRICITY,INCLINATION,RA_OF_ASC_NODE,ARG_OF_PERICENTER,MEAN_ANOMALY,BSTAR,MEAN_MOTION_DOT,MEAN_MOTION_DDOT,TLE_LINE0,TLE_LINE1,TLE_LINE2,SEMIMAJOR_AXIS,PERIOD,APOGEE,PERIGEE,DECAYED
56778.0,STARLINK-6304,PAYLOAD,2024-05-18 20:39:38,14.98328662,0.0002579,70.0006,188.275,275.409,84.6775,-4.0374e-05,-5.75e-06,0.0,0 STARLINK-6304,1 56778U 23078M   24139.86086116 -.00000575  00000-0 -40374-4 0  9999,2 56778  70.0006 188.2750 0002579 275.4090  84.6775 14.98328662 54598,6950.197,96.107,573.854,570.27,0.0
56778.0,STARLINK-6304,PAYLOAD,2024-05-19 12:40:59,14.98316069,0.0002881,70.0,186.5944,270.4177,89.6652,-2.9533e-06,-1.28e-06,0.0,0 STARLINK-6304,1 56778U 23078M   24140.52847117 -.00000128  00000-0 -29533-5 0  9999,2 56778  70.0000 186.5944 0002881 270.4177  89.6652 14.98316069 54435,6950.236,96.108,574.103,570.099,0.0
56778.0,STARLINK-6304,PAYLOAD,2024-05-20 04:42:19,14.98334466,0.0003212,69.9992,184.9109,269.8164,90.2627,-1.0385e-05,-2.17e-06,0.0,0 STARLINK-6304,1 56778U 23078M   24141.19606030 -.00000217  00000-0 -10385-4 0  9993,2 56778  69.9992 184.9109 0003212 269.8164  90.2627 14.98334466 54794,6950.179,96.107,574.276,569.812,0.0
56778.0,STARLINK-6304,PAYLOAD,2024-05-20 12:42:59,14.98340594,0.0003068,69.9995,184.0689,269.7715,90.3093,4.711e-06,-3.7e-07,0.0,0 STARLINK-6304,1 56778U 23078M   24141.52985474 -.00000037  00000-0  47110-5 0  9998,2 56778  69.9995 184.0689 0003068 269.7715  90.3093 14.98340594 54585,6950.16,96.106,574.157,569.893,0.0
56778.0,STARLINK-6304,PAYLOAD,2024-05-21 04:44:20,14.98323157,0.0003174,69.9995,182.3863,270.0313,90.0482,8.448e-05,9.15e-06,0.0,0 STARLINK-6304,1 56778U 23078M   24142.19746202  .00000915  00000-0  84480-4 0  9990,2 56778  69.9995 182.3863 0003174 270.0313  90.0482 14.98323157 54942,6950.214,96.107,574.285,569.873,0.0
56778.0,STARLINK-6304,PAYLOAD,2024-05-21 12:45:00,14.98325933,0.0003126,69.9997,181.5458,263.6883,96.392,7.4623e-05,7.97e-06,0.0,0 STARLINK-6304,1 56778U 23078M   24142.53126090  .00000797  00000-0  74623-4 0  9991,2 56778  69.9997 181.5458 0003126 263.6883  96.3920 14.98325933 54739,6950.205,96.107,574.243,569.898,0.0
56778.0,STARLINK-6304,PAYLOAD,2024-05-22 04:46:20,14.98339534,0.0003154,69.9997,179.8624,260.8897,99.1905,1.0867e-05,3.7e-07,0.0,0 STARLINK-6304,1 56778U 23078M   24143.19885234  .00000037  00000-0  10867-4 0  9993,2 56778  69.9997 179.8624 0003154 260.8897  99.1905 14.98339534 55095,6950.163,96.106,574.22,569.836,0.0
56778.0,STARLINK-6304,PAYLOAD,2024-05-22 11:10:52,14.98339353,0.000316,69.9996,179.1891,260.0568,100.0234,9.5561e-06,2.1e-07,0.0,0 STARLINK-6304,1 56778U 23078M   24143.46589083  .00000021  00000-0  95561-5 0  9994,2 56778  69.9996 179.1891 0003160 260.0568 100.0234 14.98339353 54878,6950.164,96.106,574.225,569.833,0.0
56778.0,STARLINK-6304,PAYLOAD,2024-05-23 04:48:22,14.98327726,0.0003138,69.9995,177.3368,259.8509,100.2296,-2.1478e-05,-3.49e-06,0.0,0 STARLINK-6304,1 56778U 23078M   24144.20025706 -.00000349  00000-0 -21478-4 0  9994,2 56778  69.9995 177.3368 0003138 259.8509 100.2296 14.98327726 55245,6950.2,96.107,574.246,569.884,0.0
56778.0,STARLINK-6304,PAYLOAD,2024-05-23 11:12:54,14.98325732,0.0003168,69.9995,176.6637,259.3206,100.7597,-4.5432e-05,-6.35e-06,0.0,0 STARLINK-6304,1 56778U 23078M   24144.46729923 -.00000635  00000-0 -45432-4 0  9998,2 56778  69.9995 176.6637 0003168 259.3206 100.7597 14.98325732 55028,6950.206,96.107,574.273,569.869,0.0
56778.0,STARLINK-6304,PAYLOAD,2024-05-24 04:50:22,14.98334808,0.0003237,69.9991,174.8112,261.9284,98.1508,-3.5225e-05,-5.13e-06,0.0,0 STARLINK-6304,1 56778U 23078M   24145.20165227 -.00000513  00000-0 -35225-4 0  9996,2 56778  69.9991 174.8112 0003237 261.9284  98.1508 14.98334808 55390,6950.178,96.107,574.293,569.793,0.0
56778.0,STARLINK-6304,PAYLOAD,2024-05-24 11:14:54,14.98335667,0.0003234,69.9992,174.138,262.4123,97.6669,-2.099e-05,-3.44e-06,0.0,0 STARLINK-6304,1 56778U 23078M   24145.46869051 -.00000344  00000-0 -20990-4 0  9995,2 56778  69.9992 174.1380 0003234 262.4123  97.6669 14.98335667 55178,6950.175,96.107,574.288,569.793,0.0
56778.0,STARLINK-6304,PAYLOAD,2024-05-24 19:15:35,14.98335011,0.0003442,69.9992,173.2954,268.8287,91.2478,-5.8829e-05,-7.95e-06,0.0,0 STARLINK-6304,1 56778U 23078M   24145.80249029 -.00000795  00000-0 -58829-4 0  9992,2 56778  69.9992 173.2954 0003442 268.8287  91.2478 14.98335011 55224,6950.177,96.107,574.435,569.65,0.0
56778.0,STARLINK-6304,PAYLOAD,2024-05-25 04:52:23,14.98326713,0.0003371,69.9984,172.2859,265.1218,94.9556,-1.5716e-06,-1.12e-06,0.0,0 STARLINK-6304,1 56778U 23078M   24146.20305539 -.00000112  00000-0 -15716-5 0  9998,2 56778  69.9984 172.2859 0003371 265.1218  94.9556 14.98326713 55544,6950.203,96.107,574.411,569.725,0.0
56778.0,STARLINK-6304,PAYLOAD,2024-05-25 11:16:56,14.98324975,0.0003471,69.9984,171.6127,268.0321,92.0441,-2.0719e-05,-3.4e-06,0.0,0 STARLINK-6304,1 56778U 23078M   24146.47009777 -.00000340  00000-0 -20719-4 0  9993,2 56778  69.9984 171.6127 0003471 268.0321  92.0441 14.98324975 55329,6950.208,96.107,574.486,569.661,0.0
56778.0,STARLINK-6304,PAYLOAD,2024-05-26 04:54:24,14.98330019,0.0003515,69.9984,169.761,269.8934,90.1822,-1.3569e-05,-2.55e-06,0.0,0 STARLINK-6304,1 56778U 23078M   24147.20445533 -.00000255  00000-0 -13569-4 0  9999,2 56778  69.9984 169.7610 0003515 269.8934  90.1822 14.98330019 55690,6950.193,96.107,574.501,569.615,0.0
56778.0,STARLINK-6304,PAYLOAD,2024-05-26 11:18:57,14.98330694,0.0003428,69.9984,169.0876,268.0989,91.9777,-1.1196e-08,-9.3e-07,0.0,0 STARLINK-6304,1 56778U 23078M   24147.47149434 -.00000093  00000-0 -11196-7 0  9996,2 56778  69.9984 169.0876 0003428 268.0989  91.9777 14.98330694 55474,6950.191,96.107,574.438,569.673,0.0
56778.0,STARLINK-6304,PAYLOAD,2024-05-26 19:19:36,14.98358629,0.0003703,69.9983,168.246,268.5753,91.4981,-0.00049838,-6.039e-05,0.0,0 STARLINK-6304,1 56778U 23078M   24147.80528677 -.00006039  00000-0 -49838-3 0  9999,2 56778  69.9983 168.2460 0003703 268.5753  91.4981 14.98358629 55787,6950.104,96.105,574.543,569.396,0.0
56778.0,STARLINK-6304,PAYLOAD,2024-05-27 04:56:25,14.98324534,0.000342,69.9983,167.2361,268.701,91.3758,9.635e-05,1.057e-05,0.0,0 STARLINK-6304,1 56778U 23078M   24148.20585571  .00001057  00000-0  96350-4 0  9995,2 56778  69.9983 167.2361 0003420 268.7010  91.3758 14.98324534 55846,6950.21,96.107,574.452,569.698,0.0
56778.0,STARLINK-6304,PAYLOAD,2024-05-27 11:20:58,14.98328133,0.0003417,69.9984,166.5627,268.9237,91.1531,3.9489e-05,3.78e-06,0.0,0 STARLINK-6304,1 56778U 23078M   24148.47289521  .00000378  00000-0  39489-4 0  9995,2 56778  69.9984 166.5627 0003417 268.9237  91.1531 14.98328133 55625,6950.199,96.107,574.439,569.689,0.0
56778.0,STARLINK-6304,PAYLOAD,2024-05-28 04:58:26,14.98333711,0.0003459,69.9984,164.7115,269.0732,91.003,2.4546e-05,2e-06,0.0,0 STARLINK-6304,1 56778U 23078M   24149.20725138  .00000200  00000-0  24546-4 0  9998,2 56778  69.9984 164.7115 0003459 269.0732  91.0030 14.98333711 55996,6950.181,96.107,574.45,569.642,0.0
56778.0,STARLINK-6304,PAYLOAD,2024-05-28 11:22:58,14.9833459,0.0003443,69.9983,164.0379,269.1544,90.9221,3.3703e-05,3.09e-06,0.0,0 STARLINK-6304,1 56778U 23078M   24149.47428984  .00000309  00000-0  33703-4 0  9991,2 56778  69.9983 164.0379 0003443 269.1544  90.9221 14.98334590 55777,6950.179,96.107,574.437,569.651,0.0
56778.0,STARLINK-6304,PAYLOAD,2024-05-29 05:00:27,14.98329258,0.0003362,69.9985,162.1863,267.95,92.1274,-7.436e-06,-1.82e-06,0.0,0 STARLINK-6304,1 56778U 23078M   24150.20865325 -.00000182  00000-0 -74360-5 0  9994,2 56778  69.9985 162.1863 0003362 267.9500  92.1274 14.98329258 56143,6950.195,96.107,574.397,569.724,0.0
56778.0,STARLINK-6304,PAYLOAD,2024-05-29 09:48:51,14.9832906,0.0003355,69.9985,161.6814,267.6476,92.4299,-9.2746e-06,-2.04e-06,0.0,0 STARLINK-6304,1 56778U 23078M   24150.40893338 -.00000204  00000-0 -92746-5 0  9994,2 56778  69.9985 161.6814 0003355 267.6476  92.4299 14.98329060 55919,6950.196,96.107,574.393,569.729,0.0
56778.0,STARLINK-6304,PAYLOAD,2024-05-30 05:02:28,14.98333082,0.0003332,69.9985,159.6615,265.6154,94.4624,-1.5228e-05,-2.75e-06,0.0,0 STARLINK-6304,1 56778U 23078M   24151.21004970 -.00000275  00000-0 -15228-4 0  9997,2 56778  69.9985 159.6615 0003332 265.6154  94.4624 14.98333082 56296,6950.183,96.107,574.364,569.733,0.0
56778.0,STARLINK-6304,PAYLOAD,2024-05-30 09:50:52,14.98332441,0.0003339,69.9984,159.1566,266.3274,93.7503,-2.0749e-05,-3.41e-06,0.0,0 STARLINK-6304,1 56778U 23078M   24151.41032992 -.00000341  00000-0 -20749-4 0  9992,2 56778  69.9984 159.1566 0003339 266.3274  93.7503 14.98332441 56064,6950.185,96.107,574.371,569.73,0.0
56778.0,STARLINK-6304,PAYLOAD,2024-05-31 05:04:29,14.98327234,0.0003414,69.9982,157.1366,268.7009,91.3759,-1.2317e-05,-2.4e-06,0.0,0 STARLINK-6304,1 56778U 23078M   24152.21145266 -.00000240  00000-0 -12317-4 0  9990,2 56778  69.9982 157.1366 0003414 268.7009  91.3759 14.98327234 56447,6950.201,96.107,574.439,569.694,0.0
56778.0,STARLINK-6304,PAYLOAD,2024-05-31 09:52:53,14.98328513,0.0003361,69.9982,156.6317,267.7132,92.3642,5.1032e-06,-3.2e-07,0.0,0 STARLINK-6304,1 56778U 23078M   24152.41173144 -.00000032  00000-0  51032-5 0  9994,2 56778  69.9982 156.6317 0003361 267.7132  92.3642 14.98328513 56212,6950.197,96.107,574.398,569.727,0.0
56778.0,STARLINK-6304,PAYLOAD,2024-05-31 17:53:33,14.98329436,0.0003416,69.998,155.7897,269.0361,91.0407,-4.1996e-07,-9.8e-07,0.0,0 STARLINK-6304,1 56778U 23078M   24152.74553103 -.00000098  00000-0 -41996-6 0  9999,2 56778  69.9980 155.7897 0003416 269.0361  91.0407 14.98329436 56268,6950.195,96.107,574.434,569.685,0.0
56778.0,STARLINK-6304,PAYLOAD,2024-06-01 05:06:30,14.9833002,0.0003406,69.998,154.6114,268.8075,91.2694,-1.3108e-05,-2.49e-06,0.0,0 STARLINK-6304,1 56778U 23078M   24153.21285093 -.00000249  00000-0 -13108-4 0  9992,2 56778  69.9980 154.6114 0003406 268.8075  91.2694 14.98330020 56593,6950.193,96.107,574.425,569.691,0.0
